SatCatId,ObjectName,LaunchYear,OrbitalPeriod,LaunchMass,StatusCode,Inclination,Status,UcsData,OrbitClassEstimated,LaunchSiteCountry,Owner,UseType,Purpose,LaunchVehicleClass,TLE1,TLE2,MeanMotion,Eccentricity,OrbitClass
59263,STARLINK-31598,2024,94.11,-1.0,+,53.16,Active,0,LEO,USA,USA,Unknown,Unknown,Unknown,1 59263U 24050K   25170.14865646  .00000160  00000+0  17517-4 0  9992,2 59263  53.1614 325.4932 0001120  97.9785 262.1343 15.30187171 70196,15.30187171,0.000112,LEO
59264,STARLINK-31645,2024,94.11,-1.0,+,53.16,Active,0,LEO,USA,USA,Unknown,Unknown,Unknown,1 59264U 24050L   25170.12332824  .00000420  00000+0  26293-4 0  9998,2 59264  53.1615 325.3562 0001098  83.7860 276.3266 15.30193628 70192,15.30193628,0.0001098,LEO
59265,STARLINK-31646,2024,94.11,-1.0,+,53.16,Active,0,LEO,USA,USA,Unknown,Unknown,Unknown,1 59265U 24050M   25170.39091456  .00001066  00000+0  48093-4 0  9990,2 59265  53.1614 324.1817 0001108  97.6639 262.4487 15.30203419 70238,15.30203419,0.0001108,LEO
59266,STARLINK-31648,2024,94.11,-1.0,+,53.16,Active,0,LEO,USA,USA,Unknown,Unknown,Unknown,1 59266U 24050N   25170.69427693  .00000977  00000+0  45108-4 0  9994,2 59266  53.1601 322.5247 0001285  78.2333 281.8812 15.30190197 71445,15.30190197,0.0001285,LEO
59267,STARLINK-31579,2024,94.11,-1.0,+,53.16,Active,0,LEO,USA,USA,Unknown,Unknown,Unknown,1 59267U 24050P   25170.70799458 -.00000126  00000+0  78772-5 0  9999,2 59267  53.1609 322.6041 0001007  74.6882 285.4230 15.30196558 71449,15.30196558,0.0001007,LEO
59268,STARLINK-31627,2024,94.11,-1.0,+,53.16,Active,0,LEO,USA,USA,Unknown,Unknown,Unknown,1 59268U 24050Q   25170.14232635 -.00000849  00000+0 -16556-4 0  9991,2 59268  53.1611 325.4717 0001179  96.1273 263.9862 15.30190118 70196,15.30190118,0.0001179,LEO
59269,STARLINK-31609,2024,94.1,-1.0,+,53.16,Active,0,LEO,USA,USA,Unknown,Unknown,Unknown,1 59269U 24050R   25170.45306497 -.00008581  00000+0 -27768-3 0  9991,2 59269  53.1619 323.8581 0001111  78.6499 281.4626 15.30229891 70247,15.30229891,0.0001111,LEO
59270,STARLINK-31616,2024,94.11,-1.0,+,53.16,Active,0,LEO,USA,USA,Unknown,Unknown,Unknown,1 59270U 24050S   25170.39408070  .00000904  00000+0  42639-4 0  9990,2 59270  53.1612 324.2003 0001219  91.0285 269.0856 15.30200778 70236,15.30200778,0.0001219,LEO
59271,STARLINK-31630,2024,94.11,-1.0,+,53.16,Active,0,LEO,USA,USA,Unknown,Unknown,Unknown,1 59271U 24050T   25170.40197216  .00001050  00000+0  47579-4 0  9991,2 59271  53.1607 311.4513 0001003  79.2811 280.8302 15.30191863 70410,15.30191863,0.0001003,LEO
59272,STARLINK-31623,2024,94.11,-1.0,+,53.16,Active,0,LEO,USA,USA,Unknown,Unknown,Unknown,1 59272U 24050U   25170.42035558  .00000658  00000+0  34336-4 0  9994,2 59272  53.1609 323.6585 0001239  87.3543 272.7600 15.30188625 70244,15.30188625,0.0001239,LEO
59273,STARLINK-31595,2024,94.1,-1.0,+,53.16,Active,0,LEO,USA,USA,Unknown,Unknown,Unknown,1 59273U 24050V   25170.69743373 -.00004840  00000+0 -15146-3 0  9991,2 59273  53.1609 322.5531 0000859  63.2985 296.8103 15.30184395 71431,15.30184395,8.59e-05,LEO
59280,YUNHAI-2 02A,2024,100.86,-1.0,+,50.01,Active,0,LEO,PRC,China,Unknown,Unknown,Unknown,1 59280U 24052A   25170.85238153  .00000037  00000+0  79817-4 0  9992,2 59280  50.0077 177.9323 0011987 314.0276  45.9650 14.27766449 63868,14.27766449,0.0011987,LEO
59281,YUNHAI-2 02B,2024,100.86,-1.0,+,50.01,Active,0,LEO,PRC,China,Unknown,Unknown,Unknown,1 59281U 24052B   25170.83069511  .00000049  00000+0  84697-4 0  9996,2 59281  50.0108 117.7842 0005031 357.0352   3.0532 14.27781435 64831,14.27781435,0.0005031,LEO
59282,YUNHAI-2 02C,2024,100.86,-1.0,+,50.01,Active,0,LEO,PRC,China,Unknown,Unknown,Unknown,1 59282U 24052C   25170.80473728  .00000013  00000+0  69952-4 0  9991,2 59282  50.0091 237.8550 0006452 328.2736  31.7790 14.27769632 62722,14.27769632,0.0006452,LEO
59283,YUNHAI-2 02D,2024,100.86,-1.0,+,50.01,Active,0,LEO,PRC,China,Unknown,Unknown,Unknown,1 59283U 24052D   25170.78584387  .00000014  00000+0  70590-4 0  9994,2 59283  50.0098 357.9644 0004448  29.7792 330.3375 14.27719814 66702,14.27719814,0.0004448,LEO
59284,YUNHAI-2 02E,2024,100.86,-1.0,+,50.01,Active,0,LEO,PRC,China,Unknown,Unknown,Unknown,1 59284U 24052E   25170.80574763  .00000029  00000+0  76529-4 0  9999,2 59284  50.0126  58.1520 0011630 227.7945 132.1983 14.27767618 65795,14.27767618,0.001163,LEO
59285,YUNHAI-2 02F,2024,100.85,-1.0,+,50.01,Active,0,LEO,PRC,China,Unknown,Unknown,Unknown,1 59285U 24052F   25170.82796351  .00000050  00000+0  84986-4 0  9991,2 59285  50.0129 298.1838 0005593 349.6406  10.4393 14.27832837 67627,14.27832837,0.0005593,LEO
59289,MOLA,2024,93.72,-1.0,+,49.99,Active,0,LEO,USA,USA,Unknown,Unknown,Unknown,1 59289U 24053B   25169.78577881  .00014664  00000+0  41465-3 0  9994,2 59289  49.9877 349.2992 0003557 261.4640  98.5918 15.36492838 65268,15.36492838,0.0003557,LEO
59290,AEROCUBE 16A,2024,94.0,-1.0,+,49.99,Active,0,LEO,USA,USA,Unknown,Unknown,Unknown,1 59290U 24053C   25170.20280301  .00008502  00000+0  28273-3 0  9999,2 59290  49.9932 353.0910 0004727 270.5976  89.4440 15.31919625 65259,15.31919625,0.0004727,LEO
59291,AEROCUBE 16B,2024,94.0,-1.0,+,50.0,Active,0,LEO,USA,USA,Unknown,Unknown,Unknown,1 59291U 24053D   25170.20389841  .00008318  00000+0  27687-3 0  9992,2 59291  49.9959 353.1586 0004648 268.2209  91.8217 15.31921508 65335,15.31921508,0.0004648,LEO
59296,STARLINK-31463,2024,94.22,-1.0,+,43.0,Active,0,LEO,USA,USA,Unknown,Unknown,Unknown,1 59296U 24056A   25170.33857926 -.00000205  00000+0  20937-5 0  9999,2 59296  42.9983 274.0546 0000830 236.6570 123.4202 15.28411927 70928,15.28411927,8.3e-05,LEO
59297,STARLINK-31487,2024,94.27,-1.0,+,43.0,Active,0,LEO,USA,USA,Unknown,Unknown,Unknown,1 59297U 24056B   25170.32480155 -.00001343  00000+0 -39309-4 0  9992,2 59297  43.0009 278.2693 0000955 278.5916  81.4828 15.27577228 70996,15.27577228,9.55e-05,LEO
59298,STARLINK-31386,2024,94.27,-1.0,+,43.0,Active,0,LEO,USA,USA,Unknown,Unknown,Unknown,1 59298U 24056C   25170.56834720 -.00004559  00000+0 -15612-3 0  9992,2 59298  42.9952 276.6540 0000765 166.8923 193.1948 15.27606546 70621,15.27606546,7.65e-05,LEO
59299,STARLINK-31409,2024,93.46,-1.0,+,43.0,Active,0,LEO,USA,USA,Unknown,Unknown,Unknown,1 59299U 24056D   25170.56932718 -.00000471  00000+0 -40199-5 0  9998,2 59299  43.0014 270.6142 0000780 268.5168  91.5600 15.40680120 71108,15.4068012,7.8e-05,LEO
59300,STARLINK-31489,2024,94.27,-1.0,+,43.0,Active,0,LEO,USA,USA,Unknown,Unknown,Unknown,1 59300U 24056E   25170.35677845 -.00000841  00000+0 -21033-4 0  9991,2 59300  43.0014 277.6439 0001264 266.4339  93.6369 15.27576521 70885,15.27576521,0.0001264,LEO
59301,STARLINK-31502,2024,93.46,-1.0,+,43.0,Active,0,LEO,USA,USA,Unknown,Unknown,Unknown,1 59301U 24056F   25170.58934196  .00000384  00000+0  16456-4 0  9995,2 59301  43.0033 269.8928 0001680 272.8455  87.2210 15.40692428 70733,15.40692428,0.000168,LEO
59302,STARLINK-31447,2024,94.27,-1.0,+,43.0,Active,0,LEO,USA,USA,Unknown,Unknown,Unknown,1 59302U 24056G   25170.57093566 -.00003968  00000+0 -13485-3 0  9993,2 59302  42.9947 276.6735 0001117 123.8285 236.2673 15.27552349 70921,15.27552349,0.0001117,LEO
59303,STARLINK-31504,2024,94.27,-1.0,+,43.0,Active,0,LEO,USA,USA,Unknown,Unknown,Unknown,1 59303U 24056H   25170.57862799  .00000699  00000+0  34912-4 0  9991,2 59303  43.0001 276.7339 0000871 245.0395 115.0366 15.27581551 70921,15.27581551,8.71e-05,LEO
59304,STARLINK-31474,2024,93.68,-1.0,+,43.0,Active,0,LEO,USA,USA,Unknown,Unknown,Unknown,1 59304U 24056J   25170.91668981 -.01379851  00000+0 -42090-1 0  9992,2 59304  43.0005 268.1075 0001682 280.8607  55.9489 15.36175073 70849,15.36175073,0.0001682,LEO
59305,STARLINK-31500,2024,94.27,-1.0,+,43.0,Active,0,LEO,USA,USA,Unknown,Unknown,Unknown,1 59305U 24056K   25170.57477828  .00001157  00000+0  51564-4 0  9990,2 59305  42.9991 276.7040 0001585 262.7462  97.3209 15.27577305 70911,15.27577305,0.0001585,LEO
59306,STARLINK-31480,2024,94.27,-1.0,+,43.0,Active,0,LEO,USA,USA,Unknown,Unknown,Unknown,1 59306U 24056L   25170.56064008  .00001220  00000+0  53847-4 0  9999,2 59306  43.0003 276.5895 0001384 243.1695 116.9016 15.27577502 70768,15.27577502,0.0001384,LEO
59307,STARLINK-31282,2024,94.27,-1.0,+,43.0,Active,0,LEO,USA,USA,Unknown,Unknown,Unknown,1 59307U 24056M   25170.58248555 -.00000261  00000+0  42727-7 0  9996,2 59307  42.9998 276.7639 0001093 269.9206  90.1520 15.27581822 70919,15.27581822,0.0001093,LEO
59308,STARLINK-31485,2024,94.27,-1.0,+,43.0,Active,0,LEO,USA,USA,Unknown,Unknown,Unknown,1 59308U 24056N   25170.59019237 -.00000199  00000+0  22978-5 0  9995,2 59308  43.0002 276.8142 0001046 209.0355 151.0438 15.27586806 70918,15.27586806,0.0001046,LEO
59309,STARLINK-31455,2024,94.27,-1.0,+,43.0,Active,0,LEO,USA,USA,Unknown,Unknown,Unknown,1 59309U 24056P   25170.72144929  .00000302  00000+0  20503-4 0  9994,2 59309  43.0004 272.6256 0000967 278.7186  81.3556 15.27581598 70770,15.27581598,9.67e-05,LEO
59310,STARLINK-31475,2024,94.27,-1.0,+,43.0,Active,0,LEO,USA,USA,Unknown,Unknown,Unknown,1 59310U 24056Q   25170.32657000 -.00001036  00000+0 -28120-4 0  9991,2 59310  42.9995 274.8235 0001281 281.6064  78.4643 15.27573948 71032,15.27573948,0.0001281,LEO
59312,STARLINK-31445,2024,94.27,-1.0,+,43.0,Active,0,LEO,USA,USA,Unknown,Unknown,Unknown,1 59312U 24056S   25170.58280835  .00000764  00000+0  37318-4 0  9993,2 59312  43.0018 283.6801 0001351 241.6900 118.3816 15.27565131 70830,15.27565131,0.0001351,LEO
59313,STARLINK-31495,2024,93.46,-1.0,+,43.01,Active,0,LEO,USA,USA,Unknown,Unknown,Unknown,1 59313U 24056T   25170.32778251  .00000853  00000+0  27694-4 0  9995,2 59313  43.0063 271.3705 0001865 264.8908  95.1735 15.40695709 70958,15.40695709,0.0001865,LEO
59314,STARLINK-31477,2024,93.46,-1.0,+,43.0,Active,0,LEO,USA,USA,Unknown,Unknown,Unknown,1 59314U 24056U   25170.30551327 -.00000447  00000+0 -34327-5 0  9990,2 59314  43.0020 272.0677 0001707 268.2675  91.7986 15.40705300 70940,15.407053,0.0001707,LEO
